#dP2024  9  8 18  0  0.00000000      96 __u+U IGS20 EXT  IAC
## 2331  64800.00000000   900.00000000 60561 0.7500000000000
+   54   G01G02G03G04G05G06G07G08G09G10G11G12G13G14G15G16G17
+        G18G19G20G21G22G23G24G25G26G27G28G29G30G31G32R01R02
+        R03R04R05R07R08R09R11R12R14R15R16R17R18R19R20R21R22
+        R24R25R26  0  0  0  0  0  0  0  0  0  0  0  0  0  0
+          0  0  0  0  0  0  0  0  0  0  0  0  0  0  0  0  0
++        12  9  7  7  8  8  9  7  6  6  9  6  6  6  7  7  7
++         9  6  8  8  7  6  6  7  7  7  7  6  7  6  7  7  8
++         6  9  7  8  8  6  7  6  8  8  8  8  7  9 10  7  8
++         8  7  9  0  0  0  0  0  0  0  0  0  0  0  0  0  0
++         0  0  0  0  0  0  0  0  0  0  0  0  0  0  0  0  0
%c M  cc GPS ccc cccc cccc cccc cccc ccccc ccccc ccccc ccccc
%c cc cc ccc ccc cccc cccc cccc cccc ccccc ccccc ccccc ccccc
%f  0.0000000  0.000000000  0.00000000000  0.000000000000000
%f  0.0000000  0.000000000  0.00000000000  0.000000000000000
%i    0    0    0    0      0      0      0      0         0
%i    0    0    0    0      0      0      0      0         0
/* IAC                                ULTRA-RAPID PREDICTION
/* S/V CLOCKS ARE ALIGNED TO GNSS TIME                      
/* G:C1WC2W R:C1PC2P E:C1XC5X C:C2IC6I J:C1CC2S             
/* PCV:IGS20_2317 OL/AL:FES2004  NONE     YN ORB:CoN CLK:CoN
*  2024 09 08 21  0  0.00000000
PG01   6588.643570 -25046.445439  -5401.329645    202.116104
PG02 -21384.934997 -11361.755532  11752.727077   -362.129979
PG03 -15428.415364    104.896463  21435.334347    530.765968
PG04 -26050.603768  -1222.785951   5437.747507    439.989736
PG05   8228.888681  16332.688804 -19419.238980   -185.944364
PG06    501.715225  19941.770964  17547.058553     44.128374
PG07 -15477.359825   4156.812438 -20723.939248    -40.288277
PG08 -20367.165240  -7786.720111 -15569.512642    345.693034
PG09 -24983.038928   7606.779704  -5101.076511    348.310635
PG10  10208.595301 -24316.138166   -202.343118   -119.043316
PG11  11885.916853  23232.421721   5167.214567   -732.304265
PG12  14521.911516   4479.968516  21500.221204   -536.597709
PG13  12467.304918  13440.769806 -19530.619850    675.425573
PG14 -13089.305638  22607.544840  -4030.924876    491.169794
PG15  21118.163562   5764.208728 -15675.686396    202.031352
PG16  -3659.990468 -19669.258057 -17576.462978   -186.278970
PG17 -14287.781406  13653.061125  18249.799860    632.511311
PG18  14662.265548  -4845.815051 -21615.361470   -652.130998
PG19  -4968.434917  14824.393614  21256.717867    535.518899
PG20   2782.440064  24066.913998 -10989.230936    370.839076
PG21 -21046.593915 -15991.108306   6480.452501    102.121795
PG22  -9101.924237  24737.686003   4795.469994    -59.890128
PG23  15597.864926 -17212.732646 -12644.520737    315.825082
PG24  21339.131549  13383.350955   8605.171618   -486.787364
PG25  17129.972356  -8885.275619  17797.268252    499.587355
PG26   3001.683135 -25420.042419  -6466.406524     83.216273
PG27  -9952.146271 -13432.087613 -21020.147807    -33.760076
PG28   1079.694699 -19004.019086  18511.006201   -403.932682
PG29  26319.578192  -3226.984251  -2498.607835   -579.108834
PG30  -7724.549425  14719.180943 -20513.025543   -324.955455
PG31  -8688.736341 -22978.100695   9361.591731   -224.930984
PG32  12091.010910 -14804.233210  18570.360945   -598.978900
PR01  14695.013434 -15945.049506  13435.295290     97.143136
PR02   -770.185906 -11569.765905  22750.358080    -24.564120
PR03 -16724.363683  -1174.611606  19289.662899    107.174158
PR04 -23087.430193   9384.568956   5507.796447    253.763272
PR05 -17298.828246  15004.298371 -11262.817185    137.368317
PR07  17044.120100    812.380231 -18903.249875     90.499396
PR08  22975.320852  -9735.839645  -5139.888107     -6.389490
PR09   3446.504130  24396.762715   6456.150748    208.040147
PR11  10820.366111  -4532.001537  22666.123182     12.386792
PR12   5845.954791 -22102.203534  11331.075169     44.614962
PR14  -9545.951109 -12769.466427 -19902.773255     26.901810
PR15 -10806.852347   6327.668723 -22197.483406     76.074001
PR16  -5742.560847  22015.777530 -11480.742476     28.955253
PR17 -21934.174216 -12907.777698   1255.620193    120.271581
PR18 -19299.676157  -3520.524313  16342.325093    161.088886
PR19  -8741.475120   6516.635355  23060.256241   -290.678782
PR20  11029.164730  16316.580691  16203.549369   -118.821821
PR21  21707.535204  13423.672806   -540.356561   -132.825137
PR22  18765.335855   2879.302243 -17007.173827     51.497621
PR24 -12057.718653 -16124.797527 -15624.953465    -71.225640
PR25  21541.925367  13597.090473  -1583.923234   -100.885086
PR26  22896.804896  -9036.875907  -6708.578575     20.921317
*  2024 09 08 21 15  0.00000000
PG01   7015.243178 -25331.185810  -2589.582289    202.107802
PG02 -22048.406633 -12291.562741   9247.415417   -362.122854
PG03 -14572.451355  -2256.313624  21916.480907    530.778296
PG04 -25313.187622  -1540.563886   8152.750572    439.996217
PG05   7478.557984  18297.412162 -17890.440590   -185.945544
PG06   -878.177517  18372.997252  19184.208035     44.105266
PG07 -16965.137508   2237.926664 -19900.391032    -40.283822
PG08 -18581.904468  -8311.714230 -17396.523908    345.705024
PG09 -25435.513315   7438.689752  -2293.277518    348.325006
PG10  10330.526353 -24040.944227  -3118.282640   -119.054153
PG11  11262.501332  22772.048448   7899.075521   -732.308286
PG12  13485.642115   6782.454649  21575.061949   -536.600241
PG13  10221.966473  13569.744400 -20702.763125    675.427386
PG14 -13142.592152  21909.083986  -6776.065339    491.177529
PG15  19458.946976   6513.181023 -17471.430880    202.035276
PG16  -2695.679089 -21274.532876 -15709.330997   -186.269728
PG17 -16196.958829  13728.161555  16486.719523    632.501461
PG18  16138.985273  -2915.031790 -20918.288673   -652.133144
PG19  -7394.705041  14887.852536  20461.033816    535.523383
PG20   2353.482503  25125.449896  -8455.905548    370.838741
PG21 -21299.749961 -16476.389864   3761.457457    102.121179
PG22  -9454.605103  24945.419696   1992.525806    -59.893584
PG23  15244.206948 -15658.119980 -14909.573932    315.832707
PG24  21761.638464  14208.954056   5994.683930   -486.787225
PG25  16555.742302  -6762.629005  19214.964103    499.587445
PG26   3502.553503 -25876.589728  -3733.349182     83.208788
PG27  -7620.211596 -13881.728861 -21664.144406    -33.760221
PG28   2620.150296 -17432.763307  19854.100572   -403.945366
PG29  26455.796688  -3018.423257    364.026932   -579.106673
PG30  -9328.396156  12899.852343 -21083.356297   -324.949086
PG31  -7699.082902 -22157.007708  11854.101942   -224.930501
PG32  14084.021650 -15004.962827  16892.644602   -598.975742
PR01  15889.823762 -16844.388734  10701.732043     97.144211
PR02   1593.843400 -12975.388917  21927.355439    -24.564301
PR03 -14554.451482  -2353.536733  20873.828423    107.174768
PR04 -22249.879450   9103.337003   8580.350784    253.764829
PR05 -18268.449492  15747.560520  -8341.650945    137.368816
PR07  14893.895932   1979.777413 -20562.354280     90.500090
PR08  22179.065578  -9446.808429  -8223.654430     -6.389500
PR09   3556.119301  24995.043195   3340.264016    208.041904
PR11  10859.659832  -1716.215795  23031.081109     12.385694
PR12   5757.061171 -20542.117936  14004.519810     44.615347
PR14  -9665.516849 -15115.486786 -18125.585728     26.901830
PR15 -10821.003594   3545.983282 -22801.120125     76.073661
PR16  -5645.876111  20428.243535 -14152.424607     28.955564
PR17 -21987.148781 -12723.267729  -1979.338159    120.274568
PR18 -20983.825613  -4333.092538  13887.434349    161.090535
PR19 -11137.348671   5050.604060  22384.131195   -290.680038
PR20   9306.302333  15045.140495  18373.415128   -118.822213
PR21  21696.346687  13180.899885   2690.761217   -132.827937
PR22  20485.345105   3826.342842 -14680.063550     51.489570
PR24 -10313.829812 -15006.094965 -17831.673379    -71.227151
PR25  21619.557447  13469.806992   1626.093334   -100.884584
PR26  21944.790987  -8650.736812  -9716.336701     20.930725
EOF
